[{"OBJECT_NAME":"STARLINK-35582","OBJECT_ID":"2025-265X","EPOCH":"2026-03-09T13:29:26.996928","MEAN_MOTION":15.27598737,"ECCENTRICITY":0.00036595,"INCLINATION":43.0013,"RA_OF_ASC_NODE":278.6784,"ARG_OF_PERICENTER":295.6523,"MEAN_ANOMALY":64.3951,"EPHEMERIS_TYPE":0,"CLASSIFICATION_TYPE":"U","NORAD_CAT_ID":66537,"ELEMENT_SET_NO":999,"REV_AT_EPOCH":1709,"BSTAR":0.0010915223,"MEAN_MOTION_DOT":0.00029917,"MEAN_MOTION_DDOT":0},{"OBJECT_NAME":"OBJECT H","OBJECT_ID":"2026-023H","EPOCH":"2026-03-09T17:12:47.154816","MEAN_MOTION":15.23139098,"ECCENTRICITY":0.00239537,"INCLINATION":96.639,"RA_OF_ASC_NODE":144.1723,"ARG_OF_PERICENTER":117.6533,"MEAN_ANOMALY":242.7142,"EPHEMERIS_TYPE":0,"CLASSIFICATION_TYPE":"U","NORAD_CAT_ID":67681,"ELEMENT_SET_NO":999,"REV_AT_EPOCH":484,"BSTAR":0.00052586846,"MEAN_MOTION_DOT":0.00012465,"MEAN_MOTION_DDOT":0}]
